[{"OBJECT_NAME":"OBJECT J","OBJECT_ID":"2025-155J","EPOCH":"2026-03-09T22:09:22.347648","MEAN_MOTION":15.2758258,"ECCENTRICITY":0.00088188,"INCLINATION":97.4475,"RA_OF_ASC_NODE":37.3123,"ARG_OF_PERICENTER":150.071,"MEAN_ANOMALY":210.1035,"EPHEMERIS_TYPE":0,"CLASSIFICATION_TYPE":"U","NORAD_CAT_ID":64884,"ELEMENT_SET_NO":999,"REV_AT_EPOCH":6559,"BSTAR":0.00051444498,"MEAN_MOTION_DOT":0.00013827,"MEAN_MOTION_DDOT":0},{"OBJECT_NAME":"STARLINK-35739","OBJECT_ID":"2025-294Z","EPOCH":"2026-03-09T22:12:36.454752","MEAN_MOTION":15.27596095,"ECCENTRICITY":3.199e-5,"INCLINATION":42.9976,"RA_OF_ASC_NODE":36.8746,"ARG_OF_PERICENTER":229.3795,"MEAN_ANOMALY":130.7029,"EPHEMERIS_TYPE":0,"CLASSIFICATION_TYPE":"U","NORAD_CAT_ID":67053,"ELEMENT_SET_NO":999,"REV_AT_EPOCH":1483,"BSTAR":0.0012524078,"MEAN_MOTION_DOT":0.00034379,"MEAN_MOTION_DDOT":0}]
